[{"OBJECT_NAME":"ONEWEB-0499","OBJECT_ID":"2022-138E","EPOCH":"2026-01-25T05:15:33.318432","MEAN_MOTION":13.19725255,"ECCENTRICITY":0.00017862,"INCLINATION":87.9242,"RA_OF_ASC_NODE":333.427,"ARG_OF_PERICENTER":72.7016,"MEAN_ANOMALY":287.4312,"EPHEMERIS_TYPE":0,"CLASSIFICATION_TYPE":"U","NORAD_CAT_ID":54117,"ELEMENT_SET_NO":999,"REV_AT_EPOCH":15796,"BSTAR":0.00019913883,"MEAN_MOTION_DOT":9.3e-7,"MEAN_MOTION_DDOT":0},{"OBJECT_NAME":"ONEWEB-0500","OBJECT_ID":"2022-138F","EPOCH":"2026-01-25T07:08:08.150784","MEAN_MOTION":13.19727972,"ECCENTRICITY":0.00017448,"INCLINATION":87.9242,"RA_OF_ASC_NODE":333.4002,"ARG_OF_PERICENTER":81.9465,"MEAN_ANOMALY":278.1866,"EPHEMERIS_TYPE":0,"CLASSIFICATION_TYPE":"U","NORAD_CAT_ID":54118,"ELEMENT_SET_NO":999,"REV_AT_EPOCH":15798,"BSTAR":0.00013826868,"MEAN_MOTION_DOT":6.8e-7,"MEAN_MOTION_DDOT":0},{"OBJECT_NAME":"ONEWEB-0501","OBJECT_ID":"2022-138G","EPOCH":"2026-01-25T06:02:11.048064","MEAN_MOTION":13.19727354,"ECCENTRICITY":0.00014783,"INCLINATION":87.9246,"RA_OF_ASC_NODE":333.4103,"ARG_OF_PERICENTER":70.5041,"MEAN_ANOMALY":289.6251,"EPHEMERIS_TYPE":0,"CLASSIFICATION_TYPE":"U","NORAD_CAT_ID":54119,"ELEMENT_SET_NO":999,"REV_AT_EPOCH":15795,"BSTAR":0.00015019706,"MEAN_MOTION_DOT":7.3e-7,"MEAN_MOTION_DDOT":0},{"OBJECT_NAME":"ONEWEB-0502","OBJECT_ID":"2022-138H","EPOCH":"2026-01-25T07:30:53.717472","MEAN_MOTION":13.1972675,"ECCENTRICITY":0.00016573,"INCLINATION":87.925,"RA_OF_ASC_NODE":333.3796,"ARG_OF_PERICENTER":70.7276,"MEAN_ANOMALY":289.4036,"EPHEMERIS_TYPE":0,"CLASSIFICATION_TYPE":"U","NORAD_CAT_ID":54120,"ELEMENT_SET_NO":999,"REV_AT_EPOCH":15798,"BSTAR":0.00011884359,"MEAN_MOTION_DOT":6.1e-7,"MEAN_MOTION_DDOT":0},{"OBJECT_NAME":"ONEWEB-0503","OBJECT_ID":"2022-138J","EPOCH":"2026-01-25T07:14:58.427232","MEAN_MOTION":13.19726982,"ECCENTRICITY":0.00019771,"INCLINATION":87.9249,"RA_OF_ASC_NODE":333.3858,"ARG_OF_PERICENTER":74.8498,"MEAN_ANOMALY":285.2853,"EPHEMERIS_TYPE":0,"CLASSIFICATION_TYPE":"U","NORAD_CAT_ID":54121,"ELEMENT_SET_NO":999,"REV_AT_EPOCH":15797,"BSTAR":0.00011582038,"MEAN_MOTION_DOT":5.9e-7,"MEAN_MOTION_DDOT":0},{"OBJECT_NAME":"ONEWEB-0504","OBJECT_ID":"2022-138K","EPOCH":"2026-01-25T06:56:47.184864","MEAN_MOTION":13.19725716,"ECCENTRICITY":0.00016853,"INCLINATION":87.9241,"RA_OF_ASC_NODE":333.4021,"ARG_OF_PERICENTER":73.1659,"MEAN_ANOMALY":286.9659,"EPHEMERIS_TYPE":0,"CLASSIFICATION_TYPE":"U","NORAD_CAT_ID":54122,"ELEMENT_SET_NO":999,"REV_AT_EPOCH":15798,"BSTAR":0.00011508378,"MEAN_MOTION_DOT":5.9e-7,"MEAN_MOTION_DDOT":0},{"OBJECT_NAME":"ONEWEB-0505","OBJECT_ID":"2022-138L","EPOCH":"2026-01-25T06:52:13.836864","MEAN_MOTION":13.19726388,"ECCENTRICITY":0.0001452,"INCLINATION":87.9251,"RA_OF_ASC_NODE":333.3952,"ARG_OF_PERICENTER":65.0762,"MEAN_ANOMALY":295.0521,"EPHEMERIS_TYPE":0,"CLASSIFICATION_TYPE":"U","NORAD_CAT_ID":54123,"ELEMENT_SET_NO":999,"REV_AT_EPOCH":15796,"BSTAR":0.00017102169,"MEAN_MOTION_DOT":8.1e-7,"MEAN_MOTION_DDOT":0},{"OBJECT_NAME":"ONEWEB-0506","OBJECT_ID":"2022-138M","EPOCH":"2026-01-25T06:15:50.064768","MEAN_MOTION":13.19727149,"ECCENTRICITY":0.0001669,"INCLINATION":87.9253,"RA_OF_ASC_NODE":333.3977,"ARG_OF_PERICENTER":74.5319,"MEAN_ANOMALY":285.5998,"EPHEMERIS_TYPE":0,"CLASSIFICATION_TYPE":"U","NORAD_CAT_ID":54124,"ELEMENT_SET_NO":999,"REV_AT_EPOCH":15795,"BSTAR":0.00030463828,"MEAN_MOTION_DOT":1.35e-6,"MEAN_MOTION_DDOT":0},{"OBJECT_NAME":"ONEWEB-0507","OBJECT_ID":"2022-138N","EPOCH":"2026-01-25T06:45:23.215680","MEAN_MOTION":13.19727641,"ECCENTRICITY":0.00015576,"INCLINATION":87.9235,"RA_OF_ASC_NODE":333.4213,"ARG_OF_PERICENTER":77.0088,"MEAN_ANOMALY":283.1218,"EPHEMERIS_TYPE":0,"CLASSIFICATION_TYPE":"U","NORAD_CAT_ID":54125,"ELEMENT_SET_NO":999,"REV_AT_EPOCH":15800,"BSTAR":0.00021221414,"MEAN_MOTION_DOT":9.8e-7,"MEAN_MOTION_DDOT":0},{"OBJECT_NAME":"ONEWEB-0508","OBJECT_ID":"2022-138P","EPOCH":"2026-01-25T06:40:50.756736","MEAN_MOTION":13.19726481,"ECCENTRICITY":0.00014416,"INCLINATION":87.9241,"RA_OF_ASC_NODE":333.4188,"ARG_OF_PERICENTER":76.0074,"MEAN_ANOMALY":284.1219,"EPHEMERIS_TYPE":0,"CLASSIFICATION_TYPE":"U","NORAD_CAT_ID":54126,"ELEMENT_SET_NO":999,"REV_AT_EPOCH":15798,"BSTAR":0.00037500117,"MEAN_MOTION_DOT":1.63e-6,"MEAN_MOTION_DDOT":0},{"OBJECT_NAME":"ONEWEB-0509","OBJECT_ID":"2022-138Q","EPOCH":"2026-01-25T06:04:26.454144","MEAN_MOTION":13.19728227,"ECCENTRICITY":0.00016572,"INCLINATION":87.9253,"RA_OF_ASC_NODE":333.3989,"ARG_OF_PERICENTER":77.0215,"MEAN_ANOMALY":283.1103,"EPHEMERIS_TYPE":0,"CLASSIFICATION_TYPE":"U","NORAD_CAT_ID":54127,"ELEMENT_SET_NO":999,"REV_AT_EPOCH":15795,"BSTAR":0.00017302362,"MEAN_MOTION_DOT":8.2e-7,"MEAN_MOTION_DDOT":0},{"OBJECT_NAME":"ONEWEB-0510","OBJECT_ID":"2022-138R","EPOCH":"2026-01-25T06:06:01.117440","MEAN_MOTION":13.20770755,"ECCENTRICITY":0.00021102,"INCLINATION":87.9229,"RA_OF_ASC_NODE":302.9551,"ARG_OF_PERICENTER":85.0713,"MEAN_ANOMALY":275.0661,"EPHEMERIS_TYPE":0,"CLASSIFICATION_TYPE":"U","NORAD_CAT_ID":54128,"ELEMENT_SET_NO":999,"REV_AT_EPOCH":16041,"BSTAR":0.00016151847,"MEAN_MOTION_DOT":7.9e-7,"MEAN_MOTION_DDOT":0},{"OBJECT_NAME":"ONEWEB-0511","OBJECT_ID":"2022-138S","EPOCH":"2026-01-25T05:59:54.598272","MEAN_MOTION":13.19727545,"ECCENTRICITY":0.00019573,"INCLINATION":87.9253,"RA_OF_ASC_NODE":333.4035,"ARG_OF_PERICENTER":72.7328,"MEAN_ANOMALY":287.4019,"EPHEMERIS_TYPE":0,"CLASSIFICATION_TYPE":"U","NORAD_CAT_ID":54129,"ELEMENT_SET_NO":999,"REV_AT_EPOCH":15798,"BSTAR":0.00019763077,"MEAN_MOTION_DOT":9.2e-7,"MEAN_MOTION_DDOT":0},{"OBJECT_NAME":"ONEWEB-0512","OBJECT_ID":"2022-138T","EPOCH":"2026-01-25T07:37:43.220640","MEAN_MOTION":13.19726039,"ECCENTRICITY":0.0001633,"INCLINATION":87.9242,"RA_OF_ASC_NODE":333.409,"ARG_OF_PERICENTER":68.7184,"MEAN_ANOMALY":291.4123,"EPHEMERIS_TYPE":0,"CLASSIFICATION_TYPE":"U","NORAD_CAT_ID":54130,"ELEMENT_SET_NO":999,"REV_AT_EPOCH":15796,"BSTAR":0.00011636458,"MEAN_MOTION_DOT":6.0e-7,"MEAN_MOTION_DDOT":0},{"OBJECT_NAME":"ONEWEB-0513","OBJECT_ID":"2022-138U","EPOCH":"2026-01-25T07:20:33.597888","MEAN_MOTION":13.20261281,"ECCENTRICITY":0.00017687,"INCLINATION":87.9254,"RA_OF_ASC_NODE":333.3694,"ARG_OF_PERICENTER":50.939,"MEAN_ANOMALY":309.1901,"EPHEMERIS_TYPE":0,"CLASSIFICATION_TYPE":"U","NORAD_CAT_ID":54131,"ELEMENT_SET_NO":999,"REV_AT_EPOCH":15786,"BSTAR":-0.00038983751,"MEAN_MOTION_DOT":-1.44e-6,"MEAN_MOTION_DDOT":0},{"OBJECT_NAME":"ONEWEB-0514","OBJECT_ID":"2022-138V","EPOCH":"2026-01-25T06:11:16.548288","MEAN_MOTION":13.19727489,"ECCENTRICITY":0.00018931,"INCLINATION":87.9245,"RA_OF_ASC_NODE":333.4087,"ARG_OF_PERICENTER":80.9597,"MEAN_ANOMALY":279.175,"EPHEMERIS_TYPE":0,"CLASSIFICATION_TYPE":"U","NORAD_CAT_ID":54132,"ELEMENT_SET_NO":999,"REV_AT_EPOCH":15797,"BSTAR":0.00022880628,"MEAN_MOTION_DOT":1.05e-6,"MEAN_MOTION_DDOT":0},{"OBJECT_NAME":"ONEWEB-0515","OBJECT_ID":"2022-138W","EPOCH":"2026-01-25T05:47:49.476768","MEAN_MOTION":13.2077407,"ECCENTRICITY":0.00019239,"INCLINATION":87.9231,"RA_OF_ASC_NODE":302.9455,"ARG_OF_PERICENTER":104.252,"MEAN_ANOMALY":255.8827,"EPHEMERIS_TYPE":0,"CLASSIFICATION_TYPE":"U","NORAD_CAT_ID":54133,"ELEMENT_SET_NO":999,"REV_AT_EPOCH":16043,"BSTAR":0.00025685613,"MEAN_MOTION_DOT":1.17e-6,"MEAN_MOTION_DDOT":0}]
