ONEWEB-0499             
1 54117U 22138E   26025.21913563  .00000093  00000+0  19914-3 0  9997
2 54117  87.9242 333.4270 0001786  72.7016 287.4312 13.19725255157964
ONEWEB-0500             
1 54118U 22138F   26025.29731656  .00000068  00000+0  13827-3 0  9996
2 54118  87.9242 333.4002 0001744  81.9465 278.1866 13.19727972157983
ONEWEB-0501             
1 54119U 22138G   26025.25151676  .00000073  00000+0  15020-3 0  9994
2 54119  87.9246 333.4103 0001478  70.5041 289.6251 13.19727354157954
ONEWEB-0502             
1 54120U 22138H   26025.31312173  .00000061  00000+0  11884-3 0  9995
2 54120  87.9250 333.3796 0001657  70.7276 289.4036 13.19726750157980
ONEWEB-0503             
1 54121U 22138J   26025.30206513  .00000059  00000+0  11582-3 0  9997
2 54121  87.9249 333.3858 0001977  74.8498 285.2853 13.19726982157971
ONEWEB-0504             
1 54122U 22138K   26025.28943501  .00000059  00000+0  11508-3 0  9998
2 54122  87.9241 333.4021 0001685  73.1659 286.9659 13.19725716157981
ONEWEB-0505             
1 54123U 22138L   26025.28627126  .00000081  00000+0  17102-3 0  9992
2 54123  87.9251 333.3952 0001452  65.0762 295.0521 13.19726388157965
ONEWEB-0506             
1 54124U 22138M   26025.26099612  .00000135  00000+0  30464-3 0  9990
2 54124  87.9253 333.3977 0001669  74.5319 285.5998 13.19727149157955
ONEWEB-0507             
1 54125U 22138N   26025.28151870  .00000098  00000+0  21221-3 0  9997
2 54125  87.9235 333.4213 0001557  77.0088 283.1218 13.19727641158000
ONEWEB-0508             
1 54126U 22138P   26025.27836524  .00000163  00000+0  37500-3 0  9993
2 54126  87.9241 333.4188 0001441  76.0074 284.1219 13.19726481157984
ONEWEB-0509             
1 54127U 22138Q   26025.25308396  .00000082  00000+0  17302-3 0  9991
2 54127  87.9253 333.3989 0001657  77.0215 283.1103 13.19728227157951
ONEWEB-0510             
1 54128U 22138R   26025.25417960  .00000079  00000+0  16152-3 0  9998
2 54128  87.9229 302.9551 0002110  85.0713 275.0661 13.20770755160418
ONEWEB-0511             
1 54129U 22138S   26025.24993748  .00000092  00000+0  19763-3 0  9997
2 54129  87.9253 333.4035 0001957  72.7328 287.4019 13.19727545157984
ONEWEB-0512             
1 54130U 22138T   26025.31786135  .00000060  00000+0  11636-3 0  9993
2 54130  87.9242 333.4090 0001633  68.7184 291.4123 13.19726039157967
ONEWEB-0513             
1 54131U 22138U   26025.30594442 -.00000144  00000+0 -38984-3 0  9991
2 54131  87.9254 333.3694 0001768  50.9390 309.1901 13.20261281157866
ONEWEB-0514             
1 54132U 22138V   26025.25783042  .00000105  00000+0  22881-3 0  9996
2 54132  87.9245 333.4087 0001893  80.9597 279.1750 13.19727489157970
ONEWEB-0515             
1 54133U 22138W   26025.24154487  .00000117  00000+0  25686-3 0  9990
2 54133  87.9231 302.9455 0001923 104.2520 255.8827 13.20774070160437
